[{"OBJECT_NAME":"LEMUR-2-WOBLER","OBJECT_ID":"2026-004F","EPOCH":"2026-03-09T22:20:55.133952","MEAN_MOTION":14.87686378,"ECCENTRICITY":0.00099013,"INCLINATION":97.8047,"RA_OF_ASC_NODE":69.1214,"ARG_OF_PERICENTER":97.2215,"MEAN_ANOMALY":263.0127,"EPHEMERIS_TYPE":0,"CLASSIFICATION_TYPE":"U","NORAD_CAT_ID":67368,"ELEMENT_SET_NO":999,"REV_AT_EPOCH":853,"BSTAR":0.00072761606,"MEAN_MOTION_DOT":6.581e-5,"MEAN_MOTION_DDOT":0},{"OBJECT_NAME":"CZ-6A DEB","OBJECT_ID":"2024-140AV","EPOCH":"2026-03-09T16:02:49.073856","MEAN_MOTION":14.88911619,"ECCENTRICITY":0.00760382,"INCLINATION":89.0057,"RA_OF_ASC_NODE":281.1228,"ARG_OF_PERICENTER":170.8875,"MEAN_ANOMALY":189.3755,"EPHEMERIS_TYPE":0,"CLASSIFICATION_TYPE":"U","NORAD_CAT_ID":60644,"ELEMENT_SET_NO":999,"REV_AT_EPOCH":8516,"BSTAR":0.002692912,"MEAN_MOTION_DOT":0.00026759,"MEAN_MOTION_DDOT":0}]
